[{"OBJECT_NAME":"OBJECT F","OBJECT_ID":"2023-072F","EPOCH":"2026-03-09T23:31:37.259904","MEAN_MOTION":15.29470958,"ECCENTRICITY":0.00062878,"INCLINATION":97.5173,"RA_OF_ASC_NODE":265.798,"ARG_OF_PERICENTER":19.0017,"MEAN_ANOMALY":341.1456,"EPHEMERIS_TYPE":0,"CLASSIFICATION_TYPE":"U","NORAD_CAT_ID":56748,"ELEMENT_SET_NO":999,"REV_AT_EPOCH":15460,"BSTAR":0.00043416252,"MEAN_MOTION_DOT":0.00012341,"MEAN_MOTION_DDOT":0},{"OBJECT_NAME":"STARLINK-35927","OBJECT_ID":"2025-271H","EPOCH":"2026-03-09T12:19:13.955808","MEAN_MOTION":15.30193227,"ECCENTRICITY":0.00012551,"INCLINATION":53.1598,"RA_OF_ASC_NODE":140.4708,"ARG_OF_PERICENTER":107.8236,"MEAN_ANOMALY":252.2902,"EPHEMERIS_TYPE":0,"CLASSIFICATION_TYPE":"U","NORAD_CAT_ID":66624,"ELEMENT_SET_NO":999,"REV_AT_EPOCH":1754,"BSTAR":0.0010929064,"MEAN_MOTION_DOT":0.00032143,"MEAN_MOTION_DDOT":0}]
